STARLINK-36638          
1 67594U 26018F   26041.91667824 -.00055579  00000+0 -29096-3 0  9995
2 67594  97.2815 106.3501 0001312  90.7159 128.1088 15.80838621  3046
STARLINK-36628          
1 67595U 26018G   26041.91667824 -.00011670  00000+0 -60275-4 0  9995
2 67595  97.2801 106.3517 0001410  80.0447 143.4901 15.80811829  3045
STARLINK-36629          
1 67596U 26018H   26041.91667824 -.00061721  00000+0 -32366-3 0  9997
2 67596  97.2798 106.3538 0001537  88.1692 141.2076 15.80822082  3047
STARLINK-36384          
1 67597U 26018J   26041.91667824 -.00044836  00000+0 -23451-3 0  9991
2 67597  97.2801 106.3569 0001536  92.1247 143.4995 15.80818010  3104
STARLINK-36358          
1 67598U 26018K   26041.91667824 -.00093438  00000+0 -49141-3 0  9998
2 67598  97.2792 106.3576 0001228  96.0416 143.8658 15.80855734  3093
STARLINK-36582          
1 67599U 26018L   26041.91667824 -.00009076  00000+0 -46691-4 0  9992
2 67599  97.2796 106.3613 0001077  92.6021 154.1119 15.80816464  3146
STARLINK-36640          
1 67600U 26018M   26041.91667824 -.01970318  00000+0 -11800-1 0  9993
2 67600  97.2779 106.3656 0001357  97.5149 160.7153 15.80878713  3059
STARLINK-36635          
1 67601U 26018N   26041.91667824 -.00130045  00000+0 -68618-3 0  9999
2 67601  97.2802 106.3634 0001285  55.2327 196.5000 15.80884362  3057
STARLINK-36631          
1 67602U 26018P   26041.91667824 -.00001190  00000+0 -54724-5 0  9993
2 67602  97.2791 106.3686 0000896  87.5155 177.7579 15.80818836  3040
STARLINK-36626          
1 67603U 26018Q   26041.91667824  .00029130  00000+0  15239-3 0  9992
2 67603  97.2777 106.3758 0000989  92.9616 190.3077 15.80804989  3048
STARLINK-36605          
1 67604U 26018R   26041.91667824 -.00099846  00000+0 -52455-3 0  9997
2 67604  97.2770 106.3724 0000686  96.2793 182.1186 15.80898527  3043
STARLINK-36281          
1 67605U 26018S   26041.91667824 -.00017229  00000+0 -89327-4 0  9992
2 67605  97.2778 106.3707 0001258  94.9805 177.3719 15.80830185  3097
