CCSDS_OMM_VERS = 2.0
CREATION_DATE  = 
ORIGINATOR     = 

OBJECT_NAME    = STARLINK-36638
OBJECT_ID      = 2026-018F
CENTER_NAME    = EARTH
REF_FRAME      = TEME
TIME_SYSTEM    = UTC
MEAN_ELEMENT_THEORY = SGP/SGP4

EPOCH          = 2026-02-10T22:00:00.999936
MEAN_MOTION    = 15.80838621
ECCENTRICITY   = .00013124
INCLINATION    = 97.2815
RA_OF_ASC_NODE = 106.3501
ARG_OF_PERICENTER = 90.7159
MEAN_ANOMALY   = 128.1088

EPHEMERIS_TYPE = 0
CLASSIFICATION_TYPE = U
NORAD_CAT_ID   = 67594
ELEMENT_SET_NO = 999
REV_AT_EPOCH   = 304
BSTAR          = -.29096324E-3
MEAN_MOTION_DOT = -.55579E-3
MEAN_MOTION_DDOT = 0

CCSDS_OMM_VERS = 2.0
CREATION_DATE  = 
ORIGINATOR     = 

OBJECT_NAME    = STARLINK-36628
OBJECT_ID      = 2026-018G
CENTER_NAME    = EARTH
REF_FRAME      = TEME
TIME_SYSTEM    = UTC
MEAN_ELEMENT_THEORY = SGP/SGP4

EPOCH          = 2026-02-10T22:00:00.999936
MEAN_MOTION    = 15.80811829
ECCENTRICITY   = .00014101
INCLINATION    = 97.2801
RA_OF_ASC_NODE = 106.3517
ARG_OF_PERICENTER = 80.0447
MEAN_ANOMALY   = 143.4901

EPHEMERIS_TYPE = 0
CLASSIFICATION_TYPE = U
NORAD_CAT_ID   = 67595
ELEMENT_SET_NO = 999
REV_AT_EPOCH   = 304
BSTAR          = -.60274568E-4
MEAN_MOTION_DOT = -.1167E-3
MEAN_MOTION_DDOT = 0

CCSDS_OMM_VERS = 2.0
CREATION_DATE  = 
ORIGINATOR     = 

OBJECT_NAME    = STARLINK-36629
OBJECT_ID      = 2026-018H
CENTER_NAME    = EARTH
REF_FRAME      = TEME
TIME_SYSTEM    = UTC
MEAN_ELEMENT_THEORY = SGP/SGP4

EPOCH          = 2026-02-10T22:00:00.999936
MEAN_MOTION    = 15.80822082
ECCENTRICITY   = .00015379
INCLINATION    = 97.2798
RA_OF_ASC_NODE = 106.3538
ARG_OF_PERICENTER = 88.1692
MEAN_ANOMALY   = 141.2076

EPHEMERIS_TYPE = 0
CLASSIFICATION_TYPE = U
NORAD_CAT_ID   = 67596
ELEMENT_SET_NO = 999
REV_AT_EPOCH   = 304
BSTAR          = -.32366163E-3
MEAN_MOTION_DOT = -.61721E-3
MEAN_MOTION_DDOT = 0

CCSDS_OMM_VERS = 2.0
CREATION_DATE  = 
ORIGINATOR     = 

OBJECT_NAME    = STARLINK-36384
OBJECT_ID      = 2026-018J
CENTER_NAME    = EARTH
REF_FRAME      = TEME
TIME_SYSTEM    = UTC
MEAN_ELEMENT_THEORY = SGP/SGP4

EPOCH          = 2026-02-10T22:00:00.999936
MEAN_MOTION    = 15.80818010
ECCENTRICITY   = .00015366
INCLINATION    = 97.2801
RA_OF_ASC_NODE = 106.3569
ARG_OF_PERICENTER = 92.1247
MEAN_ANOMALY   = 143.4995

EPHEMERIS_TYPE = 0
CLASSIFICATION_TYPE = U
NORAD_CAT_ID   = 67597
ELEMENT_SET_NO = 999
REV_AT_EPOCH   = 310
BSTAR          = -.23450556E-3
MEAN_MOTION_DOT = -.44836E-3
MEAN_MOTION_DDOT = 0

CCSDS_OMM_VERS = 2.0
CREATION_DATE  = 
ORIGINATOR     = 

OBJECT_NAME    = STARLINK-36358
OBJECT_ID      = 2026-018K
CENTER_NAME    = EARTH
REF_FRAME      = TEME
TIME_SYSTEM    = UTC
MEAN_ELEMENT_THEORY = SGP/SGP4

EPOCH          = 2026-02-10T22:00:00.999936
MEAN_MOTION    = 15.80855734
ECCENTRICITY   = .0001228
INCLINATION    = 97.2792
RA_OF_ASC_NODE = 106.3576
ARG_OF_PERICENTER = 96.0416
MEAN_ANOMALY   = 143.8658

EPHEMERIS_TYPE = 0
CLASSIFICATION_TYPE = U
NORAD_CAT_ID   = 67598
ELEMENT_SET_NO = 999
REV_AT_EPOCH   = 309
BSTAR          = -.49140758E-3
MEAN_MOTION_DOT = -.93438E-3
MEAN_MOTION_DDOT = 0

CCSDS_OMM_VERS = 2.0
CREATION_DATE  = 
ORIGINATOR     = 

OBJECT_NAME    = STARLINK-36582
OBJECT_ID      = 2026-018L
CENTER_NAME    = EARTH
REF_FRAME      = TEME
TIME_SYSTEM    = UTC
MEAN_ELEMENT_THEORY = SGP/SGP4

EPOCH          = 2026-02-10T22:00:00.999936
MEAN_MOTION    = 15.80816464
ECCENTRICITY   = .00010776
INCLINATION    = 97.2796
RA_OF_ASC_NODE = 106.3613
ARG_OF_PERICENTER = 92.6021
MEAN_ANOMALY   = 154.1119

EPHEMERIS_TYPE = 0
CLASSIFICATION_TYPE = U
NORAD_CAT_ID   = 67599
ELEMENT_SET_NO = 999
REV_AT_EPOCH   = 314
BSTAR          = -.46690554E-4
MEAN_MOTION_DOT = -.9076E-4
MEAN_MOTION_DDOT = 0

CCSDS_OMM_VERS = 2.0
CREATION_DATE  = 
ORIGINATOR     = 

OBJECT_NAME    = STARLINK-36640
OBJECT_ID      = 2026-018M
CENTER_NAME    = EARTH
REF_FRAME      = TEME
TIME_SYSTEM    = UTC
MEAN_ELEMENT_THEORY = SGP/SGP4

EPOCH          = 2026-02-10T22:00:00.999936
MEAN_MOTION    = 15.80878713
ECCENTRICITY   = .00013575
INCLINATION    = 97.2779
RA_OF_ASC_NODE = 106.3656
ARG_OF_PERICENTER = 97.5149
MEAN_ANOMALY   = 160.7153

EPHEMERIS_TYPE = 0
CLASSIFICATION_TYPE = U
NORAD_CAT_ID   = 67600
ELEMENT_SET_NO = 999
REV_AT_EPOCH   = 305
BSTAR          = -.11799647E-1
MEAN_MOTION_DOT = -.1970318E-1
MEAN_MOTION_DDOT = 0

CCSDS_OMM_VERS = 2.0
CREATION_DATE  = 
ORIGINATOR     = 

OBJECT_NAME    = STARLINK-36635
OBJECT_ID      = 2026-018N
CENTER_NAME    = EARTH
REF_FRAME      = TEME
TIME_SYSTEM    = UTC
MEAN_ELEMENT_THEORY = SGP/SGP4

EPOCH          = 2026-02-10T22:00:00.999936
MEAN_MOTION    = 15.80884362
ECCENTRICITY   = .00012856
INCLINATION    = 97.2802
RA_OF_ASC_NODE = 106.3634
ARG_OF_PERICENTER = 55.2327
MEAN_ANOMALY   = 196.5000

EPHEMERIS_TYPE = 0
CLASSIFICATION_TYPE = U
NORAD_CAT_ID   = 67601
ELEMENT_SET_NO = 999
REV_AT_EPOCH   = 305
BSTAR          = -.68617788E-3
MEAN_MOTION_DOT = -.130045E-2
MEAN_MOTION_DDOT = 0

CCSDS_OMM_VERS = 2.0
CREATION_DATE  = 
ORIGINATOR     = 

OBJECT_NAME    = STARLINK-36631
OBJECT_ID      = 2026-018P
CENTER_NAME    = EARTH
REF_FRAME      = TEME
TIME_SYSTEM    = UTC
MEAN_ELEMENT_THEORY = SGP/SGP4

EPOCH          = 2026-02-10T22:00:00.999936
MEAN_MOTION    = 15.80818836
ECCENTRICITY   = .00008966
INCLINATION    = 97.2791
RA_OF_ASC_NODE = 106.3686
ARG_OF_PERICENTER = 87.5155
MEAN_ANOMALY   = 177.7579

EPHEMERIS_TYPE = 0
CLASSIFICATION_TYPE = U
NORAD_CAT_ID   = 67602
ELEMENT_SET_NO = 999
REV_AT_EPOCH   = 304
BSTAR          = -.5472402E-5
MEAN_MOTION_DOT = -.119E-4
MEAN_MOTION_DDOT = 0

CCSDS_OMM_VERS = 2.0
CREATION_DATE  = 
ORIGINATOR     = 

OBJECT_NAME    = STARLINK-36626
OBJECT_ID      = 2026-018Q
CENTER_NAME    = EARTH
REF_FRAME      = TEME
TIME_SYSTEM    = UTC
MEAN_ELEMENT_THEORY = SGP/SGP4

EPOCH          = 2026-02-10T22:00:00.999936
MEAN_MOTION    = 15.80804989
ECCENTRICITY   = .00009893
INCLINATION    = 97.2777
RA_OF_ASC_NODE = 106.3758
ARG_OF_PERICENTER = 92.9616
MEAN_ANOMALY   = 190.3077

EPHEMERIS_TYPE = 0
CLASSIFICATION_TYPE = U
NORAD_CAT_ID   = 67603
ELEMENT_SET_NO = 999
REV_AT_EPOCH   = 304
BSTAR          = .15239097E-3
MEAN_MOTION_DOT = .2913E-3
MEAN_MOTION_DDOT = 0

CCSDS_OMM_VERS = 2.0
CREATION_DATE  = 
ORIGINATOR     = 

OBJECT_NAME    = STARLINK-36605
OBJECT_ID      = 2026-018R
CENTER_NAME    = EARTH
REF_FRAME      = TEME
TIME_SYSTEM    = UTC
MEAN_ELEMENT_THEORY = SGP/SGP4

EPOCH          = 2026-02-10T22:00:00.999936
MEAN_MOTION    = 15.80898527
ECCENTRICITY   = .00006868
INCLINATION    = 97.2770
RA_OF_ASC_NODE = 106.3724
ARG_OF_PERICENTER = 96.2793
MEAN_ANOMALY   = 182.1186

EPHEMERIS_TYPE = 0
CLASSIFICATION_TYPE = U
NORAD_CAT_ID   = 67604
ELEMENT_SET_NO = 999
REV_AT_EPOCH   = 304
BSTAR          = -.52454972E-3
MEAN_MOTION_DOT = -.99846E-3
MEAN_MOTION_DDOT = 0

CCSDS_OMM_VERS = 2.0
CREATION_DATE  = 
ORIGINATOR     = 

OBJECT_NAME    = STARLINK-36281
OBJECT_ID      = 2026-018S
CENTER_NAME    = EARTH
REF_FRAME      = TEME
TIME_SYSTEM    = UTC
MEAN_ELEMENT_THEORY = SGP/SGP4

EPOCH          = 2026-02-10T22:00:00.999936
MEAN_MOTION    = 15.80830185
ECCENTRICITY   = .00012585
INCLINATION    = 97.2778
RA_OF_ASC_NODE = 106.3707
ARG_OF_PERICENTER = 94.9805
MEAN_ANOMALY   = 177.3719

EPHEMERIS_TYPE = 0
CLASSIFICATION_TYPE = U
NORAD_CAT_ID   = 67605
ELEMENT_SET_NO = 999
REV_AT_EPOCH   = 309
BSTAR          = -.89327348E-4
MEAN_MOTION_DOT = -.17229E-3
MEAN_MOTION_DDOT = 0

